"{\n    \"CCSDS_OMM_VERS\": \"2.0\",\n    \"COMMENT\": \"GENERATED VIA SPACE-TRACK.ORG API\",\n    \"CREATION_DATE\": \"2025-08-30T11:24:46\",\n    \"ORIGINATOR\": \"18 SPCS\",\n    \"OBJECT_NAME\": \"GALILEO 19 (2C5)\",\n    \"OBJECT_ID\": \"2017-079A\",\n    \"CENTER_NAME\": \"EARTH\",\n    \"REF_FRAME\": \"TEME\",\n    \"TIME_SYSTEM\": \"UTC\",\n    \"MEAN_ELEMENT_THEORY\": \"SGP4\",\n    \"EPOCH\": \"2025-08-30T01:41:34.877184\",\n    \"MEAN_MOTION\": \"1.704742277\",\n    \"ECCENTRICITY\": \"0.00035121249\",\n    \"INCLINATION\": \"55.170407\",\n    \"RA_OF_ASC_NODE\": \"229.51502\",\n    \"ARG_OF_PERICENTER\": \"266.92267\",\n    \"MEAN_ANOMALY\": \"93.027055\",\n    \"EPHEMERIS_TYPE\": \"0\",\n    \"CLASSIFICATION_TYPE\": \"U\",\n    \"NORAD_CAT_ID\": \"43055\",\n    \"ELEMENT_SET_NO\": \"999\",\n    \"REV_AT_EPOCH\": \"4802\",\n    \"BSTAR\": \"0\",\n    \"MEAN_MOTION_DOT\": \"0.00000055222\",\n    \"MEAN_MOTION_DDOT\": \"0\",\n    \"TLE_LINE0\": \"0 GALILEO 19 (2C5)\",\n    \"TLE_LINE1\": \"1 43055U 17079A   25242.07054256  .00000055  00000-0  00000-0 0  9995\",\n    \"TLE_LINE2\": \"2 43055  55.1704 229.5150 0003512 266.9227  93.0271  1.70474228 48021\",\n    \"SEMIMAJOR_AXIS\": \"29600.294\",\n    \"PERIOD\": \"844.702\",\n    \"APOAPSIS\": \"23232.555\",\n    \"PERIAPSIS\": \"23211.763\",\n    \"OBJECT_TYPE\": \"PAYLOAD\",\n    \"DECAYED\": \"0\"\n}"